{"fetched_at":"2026-03-29T02:12:04Z","count":15717,"tles":[{"name":"SHIYAN-28B 02","line1":"1 65226U 25177A   26087.63433275  .00000671  00000+0  92223-4 0  9994","line2":"2 65226  10.9996  98.7463 0003571 357.7629   2.2582 14.29354619 31994","category":"Other"}]}