{
  "norad_id": 65226,
  "name": "SHIYAN-28B 02",
  "history": [
    {
      "epoch": "2026-03-28T15:13:26.349600",
      "apogee_km": 796.4507331490631,
      "perigee_km": 791.3270378564594,
      "latitude_deg": -2.34177821499045,
      "longitude_deg": 43.49594400008209,
      "semi_major_axis_km": 7172.0258855027605,
      "eccentricity": 0.0003572,
      "inclination_deg": 10.9996,
      "raan_deg": 98.7463,
      "arg_perigee_deg": 357.7629,
      "mean_anomaly_deg": 2.2582,
      "mean_motion_rev_day": 14.29354619
    }
  ]
}